     3.04           N: GNSS NAV DATA    M: Mixed            RINEX VERSION / TYPE
RTKCONV demo5 b34k                      20241105 130154 UTC PGM / RUN BY / DATE 
format: RTCM 3                                              COMMENT             
log: F:\BaiduSyncdisk\PROJ-RTK\测试与实验\测试数据样本库-上COMMENT             
  \04_2023.05.19\04_2023.05.19_dynamic_raowaiquan_guangqiyuCOMMENT             
  an_01-1\rover-1.rtcm3                                     COMMENT             
                                                            END OF HEADER       
C07 2023 05 19 06 00 00 -.406336039305D-04 -.571667158056D-10  .000000000000D+00
      .100000000000D+01  .830343750000D+03  .159542359865D-08 -.840270846871D+00
      .267573632300D-04  .261829327792D-02 -.904081389308D-05  .649369929123D+04
      .453600000000D+06  .102911144495D-06  .944095207961D+00 -.298023223877D-06
      .865940854735D+00  .494937500000D+03 -.284491091851D+01 -.280547400211D-08
      .422874757288D-09  .000000000000D+00  .906000000000D+03  .000000000000D+00
      .200000000000D+01  .000000000000D+00  .151000000000D-07  .800000000000D-09
      .455612000000D+06  .000000000000D+00
C09 2023 05 19 04 00 00  .637292861938D-03 -.443050041099D-10  .000000000000D+00
      .100000000000D+01 -.130187500000D+03  .168399871673D-08 -.284446763092D+00
     -.453367829323D-05  .109459953383D-01  .957911834121D-05  .649376203346D+04
      .446400000000D+06  .132247805595D-06 -.973251454938D+00 -.129453837872D-06
      .950393466743D+00 -.679843750000D+02 -.228362442736D+01 -.197758237424D-08
     -.124576617688D-08  .000000000000D+00  .906000000000D+03  .000000000000D+00
      .200000000000D+01  .000000000000D+00  .740000000000D-08  .390000000000D-08
      .455612000000D+06  .000000000000D+00
C10 2023 05 19 06 00 00 -.621856888756D-04 -.996625004746D-11  .000000000000D+00
      .100000000000D+01  .862625000000D+03  .163006789887D-08 -.143335648841D+01
      .280220992863D-04  .871055934113D-02 -.776024535298D-05  .649377031136D+04
      .453600000000D+06  .123865902424D-06  .938138337204D+00 -.112224370241D-06
      .868079123094D+00  .463890625000D+03 -.248637240908D+01 -.283440377858D-08
      .394302138552D-09  .000000000000D+00  .906000000000D+03  .000000000000D+00
      .200000000000D+01  .000000000000D+00  .650000000000D-08  .290000000000D-08
      .455612000000D+06  .000000000000D+00
C12 2023 05 19 06 00 00  .649527879432D-03  .274242850651D-10  .000000000000D+00
      .200000000000D+02 -.916562500000D+02  .347407328053D-08  .226178424101D+01
     -.447640195489D-05  .912794843316D-03  .200234353542D-06  .528260293007D+04
      .453600000000D+06  .409781932831D-07  .192504451589D+01  .959262251854D-07
      .985394911162D+00  .371156250000D+03 -.170910503904D+01 -.700957769133D-08
     -.170721396946D-09  .000000000000D+00  .906000000000D+03  .000000000000D+00
      .200000000000D+01  .000000000000D+00  .420000000000D-08  .000000000000D+00
      .455612000000D+06  .000000000000D+00
C13 2023 05 19 06 00 00  .277783256024D-03  .827693469319D-11  .000000000000D+00
      .100000000000D+01 -.704750000000D+03  .407516974718D-09  .258729778880D+01
     -.220793299377D-04  .447272357997D-02  .319196842611D-04  .649370627975D+04
      .453600000000D+06 -.168103724718D-06  .310522547567D+01 -.920612365007D-06
      .102343984693D+01 -.726703125000D+03 -.238972739893D+01 -.170114228798D-08
      .700029159024D-09  .000000000000D+00  .906000000000D+03  .000000000000D+00
      .200000000000D+01  .000000000000D+00 -.940000000000D-08  .290000000000D-08
      .455612000000D+06  .000000000000D+00
C19 2023 05 19 06 00 00 -.911811715923D-03 -.462474503138D-11  .000000000000D+00
      .100000000000D+01  .269062500000D+02  .388873340993D-08  .136622609481D+01
      .134482979774D-05  .103033706546D-02  .815000385046D-05  .528261775398D+04
      .453600000000D+06  .167638063431D-07 -.228725262658D+01  .107102096081D-07
      .973215010723D+00  .206578125000D+03 -.965855962246D+00 -.663777649003D-08
      .733601986039D-09  .000000000000D+00  .906000000000D+03  .000000000000D+00
      .200000000000D+01  .000000000000D+00  .102000000000D-07  .102000000000D-07
      .455612000000D+06  .100000000000D+01
C20 2023 05 19 06 00 00  .559024279937D-03 -.234470221017D-10  .000000000000D+00
      .100000000000D+01  .345781250000D+02  .385480342518D-08  .170473075160D+01
      .147847458720D-05  .884740264155D-03  .812904909253D-05  .528262303162D+04
      .453600000000D+06  .265426933765D-07 -.228662541947D+01  .149011611938D-07
      .973205049714D+00  .204750000000D+03 -.560255103182D+00 -.666599195104D-08
      .719315676671D-09  .000000000000D+00  .906000000000D+03  .000000000000D+00
      .200000000000D+01  .000000000000D+00  .197000000000D-07  .197000000000D-07
      .455612000000D+06  .100000000000D+01
C22 2023 05 19 06 00 00 -.481498194858D-03  .180468973099D-10  .000000000000D+00
      .100000000000D+01  .215156250000D+02  .386301805306D-08 -.270583990452D+00
      .115949660540D-05  .676443101838D-03  .826921314001D-05  .528261713409D+04
      .453600000000D+06  .218860805035D-07 -.228546174128D+01  .186264514923D-07
      .972495471540D+00  .200078125000D+03 -.123030216725D+00 -.663099049308D-08
      .754674292356D-09  .000000000000D+00  .906000000000D+03  .000000000000D+00
      .200000000000D+01  .000000000000D+00  .144000000000D-07  .144000000000D-07
      .455612000000D+06  .100000000000D+01
C24 2023 05 19 06 00 00 -.377137912437D-04  .442232916953D-10  .000000000000D+00
      .100000000000D+01  .624531250000D+02  .387873299337D-08  .171595804075D+01
      .302074477077D-05  .486292061396D-03  .126902014017D-04  .528264856911D+04
      .453600000000D+06 -.554136931896D-07 -.189784807150D+00 -.791624188423D-08
      .946283715852D+00  .958593750000D+02  .596873307609D+00 -.662991901988D-08
     -.548951437459D-09  .000000000000D+00  .906000000000D+03  .000000000000D+00
      .200000000000D+01  .000000000000D+00  .470000000000D-08  .470000000000D-08
      .455612000000D+06  .100000000000D+01
C26 2023 05 19 06 00 00 -.122370547615D-03 -.538769029390D-11  .000000000000D+00
      .100000000000D+01  .636250000000D+02  .379908681864D-08  .249031412628D+01
      .292714685202D-05  .744352233596D-03  .126813538373D-04  .528262775803D+04
      .453600000000D+06 -.353902578354D-07 -.213415252665D+00 -.372529029846D-07
      .947775184241D+00  .943906250000D+02  .554813030373D+00 -.657134515147D-08
     -.608596779070D-09  .000000000000D+00  .906000000000D+03  .000000000000D+00
      .200000000000D+01  .000000000000D+00 -.410000000000D-08 -.410000000000D-08
      .455612000000D+06  .100000000000D+01
C29 2023 05 19 06 00 00  .122330035083D-03  .512745401693D-11  .000000000000D+00
      .100000000000D+01 -.856093750000D+02  .403052503040D-08  .109089882217D+01
     -.425428152084D-05  .308514456265D-03 -.358559191227D-07  .528261597633D+04
      .453600000000D+06 -.186264514923D-08  .187567068108D+01 -.200234353542D-07
      .960908071941D+00  .362734375000D+03  .140431849495D+01 -.731173313446D-08
     -.234295473633D-09  .000000000000D+00  .906000000000D+03  .000000000000D+00
      .200000000000D+01  .000000000000D+00  .700000000000D-09  .700000000000D-09
      .455612000000D+06  .100000000000D+01
C30 2023 05 19 05 00 00 -.386964529753D-06 -.153654866608D-12  .000000000000D+00
      .100000000000D+01 -.852968750000D+02  .400516683127D-08  .214853964863D+01
     -.415137037635D-05  .556637416594D-03  .164378434420D-06  .528261272812D+04
      .450000000000D+06 -.745058059692D-08  .187619991802D+01 -.311993062496D-07
      .960859163664D+00  .357281250000D+03  .675925172779D+00 -.728887503947D-08
     -.157149403046D-09  .000000000000D+00  .906000000000D+03  .000000000000D+00
      .200000000000D+01  .000000000000D+00 -.890000000000D-08 -.890000000000D-08
      .455612000000D+06  .100000000000D+01
C32 2023 05 19 04 00 00 -.560355372727D-03  .571986902287D-11  .000000000000D+00
      .100000000000D+01  .347187500000D+02  .393087802256D-08  .195425219321D+01
      .159349292517D-05  .680864555761D-03  .809086486697D-05  .528261854172D+04
      .446400000000D+06  .228174030781D-07 -.229337964934D+01 -.558793544769D-08
      .971954305958D+00  .205125000000D+03 -.958319210185D+00 -.668885004602D-08
      .678956852707D-09  .000000000000D+00  .906000000000D+03  .000000000000D+00
      .200000000000D+01  .000000000000D+00 -.720000000000D-08 -.720000000000D-08
      .455612000000D+06  .100000000000D+01
C35 2023 05 19 06 00 00  .624728156254D-03 -.739852623610D-11  .000000000000D+00
      .100000000000D+01 -.905781250000D+02  .397373695067D-08  .113609283378D+01
     -.439444556832D-05  .886144116521D-03 -.137835741043D-06  .528266728401D+04
      .453600000000D+06 -.814907252789D-07  .187796181852D+01 -.474974513054D-07
      .959093875047D+00  .366031250000D+03  .540275533582D+00 -.726137389394D-08
     -.263939565571D-09  .000000000000D+00  .906000000000D+03  .000000000000D+00
      .200000000000D+01  .000000000000D+00 -.190000000000D-08 -.190000000000D-08
      .455612000000D+06  .100000000000D+01
C36 2023 05 19 04 00 00 -.433487584814D-03  .222266649530D-10  .000000000000D+00
      .100000000000D+01  .783593750000D+02  .374372736984D-08 -.113954301049D+01
      .377185642719D-05  .709732179530D-03  .119884498417D-04  .528263084984D+04
      .446400000000D+06 -.884756445885D-08 -.191133908740D+00 -.544823706150D-07
      .947728912142D+00  .107718750000D+03 -.146634434752D+01 -.664849122206D-08
     -.601810782120D-09  .000000000000D+00  .906000000000D+03  .000000000000D+00
      .200000000000D+01  .000000000000D+00 -.198000000000D-07 -.198000000000D-07
      .455612000000D+06  .100000000000D+01
